#dP2025  1 30  6  0  0.00000000      96 __u+U IGS20 EXT  IAC
## 2351 367200.00000000   900.00000000 60705 0.2500000000000
+   53   G01G02G03G04G05G06G07G08G09G10G11G12G13G14G15G16G17
+        G18G19G20G21G22G23G24G25G26G27G28G29G30G31G32R01R02
+        R03R04R05R06R07R08R09R11R12R14R15R16R17R18R19R20R21
+        R22R24  0  0  0  0  0  0  0  0  0  0  0  0  0  0  0
+          0  0  0  0  0  0  0  0  0  0  0  0  0  0  0  0  0
++         8  8  8  8  8 14  8  8  8  8  8  7  7  8  9  8  8
++         7  8  8  8  8  8  8  8  8  7  7  8  8  7  8  9  7
++         8  9  8  7 10  9  8  9  7  8  7  8  8  8  8  9  8
++         7  8  0  0  0  0  0  0  0  0  0  0  0  0  0  0  0
++         0  0  0  0  0  0  0  0  0  0  0  0  0  0  0  0  0
%c M  cc GPS ccc cccc cccc cccc cccc ccccc ccccc ccccc ccccc
%c cc cc ccc ccc cccc cccc cccc cccc ccccc ccccc ccccc ccccc
%f  0.0000000  0.000000000  0.00000000000  0.000000000000000
%f  0.0000000  0.000000000  0.00000000000  0.000000000000000
%i    0    0    0    0      0      0      0      0         0
%i    0    0    0    0      0      0      0      0         0
/* IAC                                ULTRA-RAPID PREDICTION
/* S/V CLOCKS ARE ALIGNED TO GNSS TIME                      
/* G:C1WC2W R:C1PC2P E:C1XC5X C:C2IC6I J:C1CC2S             
/* PCV:IGS20_2350 OL/AL:FES2004  NONE     YN ORB:CoN CLK:CoN
*  2025 01 30 23 30  0.00000000
PG01  20288.353560  13016.802259  11171.734304     88.430026
PG02  22343.632711  12393.911556   8438.298720   -254.922239
PG03  13876.563611   4366.287673  22055.814422    655.623020
PG04  25058.060693   1477.806862   8936.401094    520.018876
PG05  -7688.584894 -18384.427321 -17701.386877   -200.566204
PG06     34.627954 -18629.596916  18951.415124   -155.159184
PG07  17797.545625  -1083.078120 -19281.946486    -13.419374
PG08  18562.520153   8025.755879 -17585.903032    471.315927
PG09  25764.105990  -6611.319897    -28.920716    549.124537
PG10 -10207.840463  23966.708055  -3926.450181   -298.846002
PG11  -9896.489565 -22517.558984  10136.970079   -749.761591
PG12 -13116.078928  -7738.100494  21473.075958   -567.494675
PG13  -9651.376570 -13545.968357 -20996.464330    695.072360
PG14  12881.949393 -21844.142424  -7416.125119    589.824114
PG15 -19513.184506  -6008.229545 -17583.957660    257.851549
PG16   1950.738530  22186.463633 -14482.458526    -64.824670
PG17  18489.905954 -13165.203667  14367.382093    449.274068
PG18 -16028.450748   3394.326302 -20921.825852   -655.617809
PG19   8460.976568 -14978.286625  19973.827498    592.445151
PG20  -1707.373534 -25693.269265  -6685.049171    366.668941
PG21  21065.554964  17119.739410   1761.375966    101.821446
PG22   9500.906080 -24978.109315    955.135250    -94.882085
PG23 -15308.542891  13909.709308 -16480.265731    414.242955
PG24 -21952.398623 -14283.318237   5072.396472   -457.956342
PG25 -16366.524292   6628.786612  19398.128365    495.869209
PG26  -2725.682207  25970.332698  -3717.029451    -70.275310
PG27   6998.159992  14048.577586 -21779.081432    -32.284872
PG28  -1418.375240  17944.068282  19519.787818   -548.373947
PG29 -26315.715758   4069.243801   -146.469133   -542.268458
PG30   9286.958032 -12859.959890 -21125.818168   -227.227738
PG31   6010.406301  21518.860901  13832.931542   -216.660318
PG32 -13043.797707  15478.793745  17325.589591   -531.438251
PR01 -20602.092095  14998.256428   1263.205771    113.059863
PR02 -10445.643865  15927.031284  16978.303685    -37.928431
PR03   6724.614619   8502.195441  23142.954279    115.946328
PR04  19239.884197  -3205.545884  16482.037804    274.982341
PR05  21838.922135 -13167.382142   1042.078636    144.615619
PR06 -18329.820321   2230.678335 -17583.550339   -131.265290
PR07  -6864.369645  -8359.639913 -23053.613594     99.861142
PR08 -19359.230331   3569.594016 -16133.233515     -6.274352
PR09    849.719522 -24698.400326  -6129.696555    235.177501
PR11 -10753.040550  -8767.160933  21405.510012     -4.992924
PR12  -8973.646127  12761.519147  20193.187370     50.221841
PR14   6793.960287  22067.351356 -10859.450884     27.675134
PR15  10996.220406   6879.393546 -21953.997602     71.661352
PR16   8846.484566 -12621.929082 -20311.791914     32.893989
PR17  17580.037039  14786.486507 -11039.911804    162.063095
PR18  23075.963513   9622.711497   5216.746743    184.599847
PR19  18226.432175   1275.616087  17804.097487   -307.406886
PR20   -379.942196 -11893.026632  22568.181065   -125.186966
PR21 -16561.926859 -15060.739074  12252.463079   -172.653559
PR22 -22854.564968  -9325.280839  -6373.435338    -58.460558
PR24   1296.470302  12472.942598 -22190.894062    -90.398135
*  2025 01 30 23 45  0.00000000
PG01  20845.397077  14028.860686   8632.342354     88.454063
PG02  22790.973882  13022.229242   5746.540927   -254.913864
PG03  13184.515394   6812.385427  21871.153934    655.628925
PG04  23971.029771   1926.733412  11465.347973    520.023996
PG05  -7144.404617 -20197.797583 -15830.615268   -200.567215
PG06   1637.322710 -17077.271924  20310.877930   -155.182505
PG07  19270.129356    584.322994 -17916.995531    -13.419583
PG08  16628.523837   8749.763713 -19081.209600    471.322333
PG09  25671.529325  -6324.560174   2817.450624    549.137423
PG10 -10230.315143  23292.879719  -6766.597749   -298.859969
PG11  -8880.661379 -21694.704981  12581.480694   -749.760015
PG12 -12257.095486 -10078.483345  21014.696891   -567.496621
PG13  -7284.470493 -13859.208769 -21720.796906    695.073382
PG14  12880.228505 -20789.953266 -10006.103725    589.830334
PG15 -17741.160649  -6959.560138 -19079.064066    257.855524
PG16   1226.389772  23507.878433 -12205.761726    -64.816298
PG17  19941.648510 -13283.060964  12088.467154    449.257673
PG18 -17588.369165   1660.369151 -19872.757843   -655.616162
PG19  10704.381417 -15190.806049  18665.233571    592.449116
PG20  -1405.456285 -26285.576260  -3931.092775    366.668674
PG21  20958.654888  17250.057801  -1028.232221    101.821872
PG22   9690.760690 -24807.993521  -1878.657244    -94.883680
PG23 -14961.323036  11935.812822 -18266.305964    414.249580
PG24 -22127.288328 -14814.124747   2334.975494   -457.952275
PG25 -15910.311774   4309.290769  20410.764885    495.868600
PG26  -3136.291548  26149.995157   -919.964960    -70.289829
PG27   4651.069234  14691.316059 -21945.720219    -32.284389
PG28  -3153.192133  16433.357725  20615.769537   -548.382060
PG29 -26207.942008   3820.041728   2711.287885   -542.265264
PG30  11051.881841 -11133.024293 -21279.738436   -227.219957
PG31   4638.707431  20400.703431  15898.708811   -216.659525
PG32 -14863.211657  15803.754903  15419.473574   -531.431515
PR01 -20475.847659  15095.973849  -1950.422830    113.061058
PR02 -11981.508497  17126.205338  14620.889722    -37.928018
PR03   4398.097805  10127.542698  23042.329545    115.946995
PR04  17385.971217  -2093.452454  18588.668004    274.983969
PR05  21465.547771 -13140.144210   4249.224624    144.616242
PR06 -16396.111399    993.183843 -19497.818115   -131.264930
PR07  -4524.320531  -9992.543373 -22986.140219     99.861785
PR08 -17540.981602   2438.773422 -18275.557760     -6.274244
PR09    886.455014 -23750.708885  -9134.721605    235.179521
PR11 -11059.826753 -11304.398865  20012.684893     -4.995722
PR12  -9152.804022  10196.834297  21528.683443     50.222237
PR14   7016.107383  23210.800299  -7946.399754     27.675190
PR15  11280.637115   9504.175185 -20801.208856     71.660940
PR16   9027.444009 -10037.722764 -21633.388639     32.894279
PR17  16260.231997  13987.422961 -13767.415762    162.065957
PR18  23564.067993   9636.772712   2022.818859    184.601568
PR19  20116.182147   2110.161215  15546.447650   -307.408012
PR20   2091.491817 -10528.846967  23148.661786   -125.186869
PR21 -15127.631363 -14181.910665  14874.225437   -172.656435
PR22 -23449.299548  -9474.526352  -3232.281065    -58.462129
PR24  -1208.485504  11258.879065 -22835.934955    -90.399571
EOF
